NORAD_CAT_ID,OBJECT_NAME,OBJECT_TYPE,EPOCH,MEAN_MOTION,ECCENTRICITY,INCLINATION,RA_OF_ASC_NODE,ARG_OF_PERICENTER,MEAN_ANOMALY,BSTAR,MEAN_MOTION_DOT,MEAN_MOTION_DDOT,TLE_LINE0,TLE_LINE1,TLE_LINE2,SEMIMAJOR_AXIS,PERIOD,APOGEE,PERIGEE,DECAYED
56462.0,STARLINK-6045,PAYLOAD,2023-05-16 16:00:00,15.97581027,0.0047728,70.0,229.0199,155.8735,347.6375,0.00080245,0.00405315,7.1469e-05,0 STARLINK-6045,1 56462U 23064Q   23136.66667824  .00405315  71469-4  80245-3 0  9999,2 56462  70.0000 229.0199 0047728 155.8735 347.6375 15.97581027  1300,6659.269,90.136,312.918,249.351,0.0
56462.0,STARLINK-6045,PAYLOAD,2023-05-16 22:00:00,15.97772671,0.0047581,69.9998,228.2877,155.4311,345.5089,0.00052647,0.00268444,3.2868e-05,0 STARLINK-6045,1 56462U 23064Q   23136.91667824  .00268444  32868-4  52647-3 0  9992,2 56462  69.9998 228.2877 0047581 155.4311 345.5089 15.97772671  1339,6658.737,90.125,312.285,248.919,0.0
56462.0,STARLINK-6045,PAYLOAD,2023-05-17 06:00:00,15.97973853,0.0047341,70.0004,227.3114,154.9853,102.7868,0.00067513,0.00348151,5.3462e-05,0 STARLINK-6045,1 56462U 23064Q   23137.25001157  .00348151  53462-4  67513-3 0  9996,2 56462  70.0004 227.3114 0047341 154.9853 102.7868 15.97973853  1392,6658.178,90.114,311.563,248.522,0.0
56462.0,STARLINK-6045,PAYLOAD,2023-05-17 22:00:00,15.9815299,0.0042685,70.0001,225.3575,153.8637,338.2839,-0.0016742,-0.00854632,0.0002411,0 STARLINK-6045,1 56462U 23064Q   23137.91667824 -.00854632  24110-3 -16742-2 0  9990,2 56462  70.0001 225.3575 0042685 153.8637 338.2839 15.98152990  1499,6657.68,90.104,307.964,251.127,0.0
56462.0,STARLINK-6045,PAYLOAD,2023-05-18 06:00:00,15.97677496,0.0039874,70.0004,224.3813,153.8758,95.0979,-0.0020512,-0.01004513,0.00032327,0 STARLINK-6045,1 56462U 23064Q   23138.25001157 -.01004513  32327-3 -20512-2 0  9994,2 56462  70.0004 224.3813 0039874 153.8758  95.0979 15.97677496  1558,6659.001,90.131,307.418,254.314,0.0
56462.0,STARLINK-6045,PAYLOAD,2023-05-18 14:00:01,15.97015346,0.0035915,69.9999,223.4056,153.4986,211.6923,-0.0021304,-0.00988599,0.00031165,0 STARLINK-6045,1 56462U 23064Q   23138.58334491 -.00988599  31165-3 -21304-2 0  9993,2 56462  69.9999 223.4056 0035915 153.4986 211.6923 15.97015346  1609,6660.842,90.168,306.629,258.784,0.0
56462.0,STARLINK-6045,PAYLOAD,2023-05-18 22:00:00,15.9633914,0.003274,69.9991,222.4305,153.3413,327.2932,-0.0021551,-0.00952,0.00028859,0 STARLINK-6045,1 56462U 23064Q   23138.91667824 -.00952000  28859-3 -21551-2 0  9997,2 56462  69.9991 222.4305 0032740 153.3413 327.2932 15.96339140  1653,6662.723,90.206,306.401,262.774,0.0
56462.0,STARLINK-6045,PAYLOAD,2023-05-19 06:00:00,15.9574302,0.0031029,69.9995,221.4571,154.2838,80.979,-0.0024522,-0.01041306,0.00033842,0 STARLINK-6045,1 56462U 23064Q   23139.25001157 -.01041306  33842-3 -24522-2 0  9994,2 56462  69.9995 221.4571 0031029 154.2838  80.9790 15.95743020  1718,6664.382,90.24,306.926,265.568,0.0
56462.0,STARLINK-6045,PAYLOAD,2023-05-19 14:00:01,15.95074208,0.0030118,69.9993,220.4844,155.4047,193.7382,-0.0025009,-0.01020947,0.00032403,0 STARLINK-6045,1 56462U 23064Q   23139.58334491 -.01020947  32403-3 -25009-2 0  9991,2 56462  69.9993 220.4844 0030118 155.4047 193.7382 15.95074208  1761,6666.245,90.278,308.187,268.032,0.0
56462.0,STARLINK-6045,PAYLOAD,2023-05-19 22:00:01,15.94399748,0.0028968,69.999,219.512,156.4653,305.8384,-0.0024934,-0.00978211,0.00029733,0 STARLINK-6045,1 56462U 23064Q   23139.91668981 -.00978211  29733-3 -24934-2 0  9995,2 56462  69.9990 219.5120 0028968 156.4653 305.8384 15.94399748  1810,6668.124,90.316,309.306,270.673,0.0
56462.0,STARLINK-6045,PAYLOAD,2023-05-20 06:00:00,15.93698624,0.0027457,69.9993,218.5411,156.6244,57.9256,-0.0022328,-0.00840872,0.00022313,0 STARLINK-6045,1 56462U 23064Q   23140.25001157 -.00840872  22313-3 -22328-2 0  9993,2 56462  69.9993 218.5411 0027457 156.6244  57.9256 15.93698624  1878,6670.08,90.356,310.259,273.631,0.0
56462.0,STARLINK-6045,PAYLOAD,2023-05-20 14:00:01,15.93021606,0.0026312,69.9993,217.571,155.1642,170.901,0.0019766,0.00713422,0.00021388,0 STARLINK-6045,1 56462U 23064Q   23140.58334491  .00713422  21388-3  19766-2 0  9990,2 56462  69.9993 217.5710 0026312 155.1642 170.9010 15.93021606  1924,6671.97,90.394,311.39,276.279,0.0
56462.0,STARLINK-6045,PAYLOAD,2023-05-20 15:39:01,15.93177497,0.0018661,69.999,217.3691,152.6127,207.6069,-0.00094512,-0.00340923,4.2497e-05,0 STARLINK-6045,1 56462U 23064Q   23140.65209857 -.00340923  42497-4 -94512-3 0  9997,2 56462  69.9990 217.3691 0018661 152.6127 207.6069 15.93177497  1938,6671.534,90.385,305.849,280.95,0.0
56462.0,STARLINK-6045,PAYLOAD,2023-05-21 06:00:00,15.91814447,0.0009641,69.9991,215.632,162.6033,24.1399,-0.0030799,-0.0101626,0.00031077,0 STARLINK-6045,1 56462U 23064Q   23141.25001157 -.01016260  31077-3 -30799-2 0  9999,2 56462  69.9991 215.6320 0009641 162.6033  24.1399 15.91814447  2035,6675.342,90.463,303.643,290.772,0.0
56462.0,STARLINK-6045,PAYLOAD,2023-05-21 14:00:01,15.9114679,0.0006262,69.999,214.6641,171.6674,124.2552,-0.0031199,-0.00992453,0.00029547,0 STARLINK-6045,1 56462U 23064Q   23141.58334491 -.00992453  29547-3 -31199-2 0  9995,2 56462  69.9990 214.6641 0006262 171.6674 124.2552 15.91146790  2083,6677.21,90.501,303.256,294.893,0.0
56462.0,STARLINK-6045,PAYLOAD,2023-05-21 22:00:00,15.90474604,0.0003918,69.9987,213.6976,193.276,211.0454,-0.0031391,-0.00964113,0.00027819,0 STARLINK-6045,1 56462U 23064Q   23141.91667824 -.00964113  27819-3 -31391-2 0  9997,2 56462  69.9987 213.6976 0003918 193.2760 211.0454 15.90474604  2139,6679.091,90.539,303.573,298.339,0.0
56462.0,STARLINK-6045,PAYLOAD,2023-05-22 14:00:01,15.8919561,0.0003181,69.9984,211.7673,258.4899,0.2533,-0.003422,-0.00895405,0.0,0 STARLINK-6045,1 56462U 23064Q   23142.58334491 -.00895405  00000-0 -34220-2 0  9993,2 56462  69.9984 211.7673 0003181 258.4899   0.2533 15.89195610  2241,6682.674,90.612,306.665,302.413,0.0
56462.0,STARLINK-6045,PAYLOAD,2023-05-22 22:00:00,15.88513071,0.0003465,69.9979,210.8031,264.894,99.9172,-0.0034539,-0.00875359,0.0,0 STARLINK-6045,1 56462U 23064Q   23142.91667824 -.00875359  00000-0 -34539-2 0  9998,2 56462  69.9979 210.8031 0003465 264.8940  99.9172 15.88513071  1300,6684.588,90.651,308.769,304.137,0.0
56462.0,STARLINK-6045,PAYLOAD,2023-05-23 06:00:00,15.8792963,0.0003466,69.998,209.8404,269.748,200.2993,-0.0039873,-0.00970912,0.0,0 STARLINK-6045,1 56462U 23064Q   23143.25001157 -.00970912  00000-0 -39873-2 0  9994,2 56462  69.9980 209.8404 0003466 269.7480 200.2993 15.87929630  2342,6686.225,90.684,310.408,305.773,0.0
56462.0,STARLINK-6045,PAYLOAD,2023-05-23 22:00:00,15.86559827,0.0003661,69.9975,207.9172,270.5883,47.6621,-0.0037958,-0.00873452,0.0,0 STARLINK-6045,1 56462U 23064Q   23143.91667824 -.00873452  00000-0 -37958-2 0  9999,2 56462  69.9975 207.9172 0003661 270.5883  47.6621 15.86559827  2450,6690.073,90.762,314.387,309.489,0.0
56462.0,STARLINK-6045,PAYLOAD,2023-05-24 14:00:01,15.85267676,0.0003431,69.9978,205.9976,275.1079,248.254,-0.0041085,-0.00886253,0.0,0 STARLINK-6045,1 56462U 23064Q   23144.58335648 -.00886253  00000-0 -41085-2 0  9998,2 56462  69.9978 205.9976 0003431 275.1079 248.2540 15.85267676  2564,6693.708,90.836,317.87,313.277,0.0
56462.0,STARLINK-6045,PAYLOAD,2023-05-24 22:00:00,15.84600088,0.0003549,69.9977,205.0394,267.9632,356.6905,-0.0041465,-0.0086797,0.0,0 STARLINK-6045,1 56462U 23064Q   23144.91667824 -.00867970  00000-0 -41465-2 0  9996,2 56462  69.9977 205.0394 0003549 267.9632 356.6905 15.84600088  1309,6695.588,90.875,319.829,315.077,0.0
56462.0,STARLINK-6045,PAYLOAD,2023-05-25 06:00:00,15.84004848,0.0003848,69.9981,204.0824,268.7564,96.4486,-0.0047431,-0.00955417,0.0,0 STARLINK-6045,1 56462U 23064Q   23145.25001157 -.00955417  00000-0 -47431-2 0  9998,2 56462  69.9981 204.0824 0003848 268.7564  96.4486 15.84004848  2661,6697.265,90.909,321.707,316.553,0.0
56462.0,STARLINK-6045,PAYLOAD,2023-05-25 14:00:01,15.83294445,0.0003816,69.9978,203.1257,276.0001,189.0092,-0.0043723,-0.00860764,0.0,0 STARLINK-6045,1 56462U 23064Q   23145.58334491 -.00860764  00000-0 -43723-2 0  9994,2 56462  69.9978 203.1257 0003816 276.0001 189.0092 15.83294445  1305,6699.268,90.95,323.69,318.577,0.0
56462.0,STARLINK-6045,PAYLOAD,2023-05-25 22:00:00,15.82641843,0.0003688,69.9976,202.1702,269.9004,294.114,-0.0045421,-0.00866394,0.0,0 STARLINK-6045,1 56462U 23064Q   23145.91667824 -.00866394  00000-0 -45421-2 0  9992,2 56462  69.9976 202.1702 0003688 269.9004 294.1140 15.82641843  2779,6701.11,90.987,325.446,320.504,0.0
56462.0,STARLINK-6045,PAYLOAD,2023-05-26 14:00:01,15.81351908,0.0003735,69.9973,200.2618,277.49,122.1782,-0.0048796,-0.00875345,0.0,0 STARLINK-6045,1 56462U 23064Q   23146.58334491 -.00875345  00000-0 -48796-2 0  9991,2 56462  69.9973 200.2618 0003735 277.4900 122.1782 15.81351908  2875,6704.754,91.061,329.123,324.114,0.0
56462.0,STARLINK-6045,PAYLOAD,2023-05-26 22:00:01,15.80671248,0.0003518,69.9975,199.3088,272.1024,224.3035,-0.0048221,-0.00841374,0.0,0 STARLINK-6045,1 56462U 23064Q   23146.91668981 -.00841374  00000-0 -48221-2 0  9990,2 56462  69.9975 199.3088 0003518 272.1024 224.3035 15.80671248  1308,6706.678,91.101,330.903,326.184,0.0
56462.0,STARLINK-6045,PAYLOAD,2023-05-27 06:00:02,15.80084961,0.0003464,69.9978,198.357,269.0226,323.2406,-0.0056721,-0.00950973,0.0,0 STARLINK-6045,1 56462U 23064Q   23147.25002315 -.00950973  00000-0 -56721-2 0  9991,2 56462  69.9978 198.3570 0003464 269.0226 323.2406 15.80084961  2981,6708.337,91.134,332.526,327.878,0.0
56462.0,STARLINK-6045,PAYLOAD,2023-05-27 22:00:00,15.7870966,0.0003435,69.9979,196.4561,271.457,150.1632,-0.0051906,-0.00829116,0.0,0 STARLINK-6045,1 56462U 23064Q   23147.91667824 -.00829116  00000-0 -51906-2 0  9990,2 56462  69.9979 196.4561 0003435 271.4570 150.1632 15.78709660  1308,6712.233,91.214,336.403,331.792,0.0
